start=new Date('2023-03-22T00:00:00.000Z').valueOf();
sats=[{"TLE_LINE2":"2 53022  53.2138 269.9233 0001046  77.6253 282.4856 15.08840439 39358","FILE":"3866953","MEAN_MOTION_DOT":"0.00002339","REF_FRAME":"TEME","PERIOD":"95.438","EPHEMERIS_TYPE":"0","NORAD_CAT_ID":"53022","APOAPSIS":"540.468","ARG_OF_PERICENTER":"77.6253","DECAY_DATE":null,"CLASSIFICATION_TYPE":"U","MEAN_ANOMALY":"282.4856","TLE_LINE1":"1 53022U 22076AN  23080.79297541  .00002339  00000-0  16499-3 0  9995","MEAN_ELEMENT_THEORY":"SGP4","EPOCH":"2023-03-21T19:01:53.075424","PERIAPSIS":"539.020","BSTAR":"0.00016499000000","RA_OF_ASC_NODE":"269.9233","TIME_SYSTEM":"UTC","OBJECT_NAME":"STARLINK-4216","REV_AT_EPOCH":"3935","GP_ID":"228620622","MEAN_MOTION_DDOT":"0.0000000000000","ELEMENT_SET_NO":"999","ECCENTRICITY":"0.00010460","OBJECT_TYPE":"PAYLOAD","CENTER_NAME":"EARTH","COUNTRY_CODE":"US","MEAN_MOTION":"15.08840439","RCS_SIZE":"LARGE","LAUNCH_DATE":"2022-07-07","SEMIMAJOR_AXIS":"6917.879","SITE":"AFETR","OBJECT_ID":"2022-076AN","INCLINATION":"53.2138"},{"REF_FRAME":"TEME","MEAN_MOTION_DOT":"0.00002325","TLE_LINE2":"2 53023  53.2154 269.6974 0001269  86.4092 273.7045 15.08844556 39360","FILE":"3866953","PERIOD":"95.437","EPHEMERIS_TYPE":"0","APOAPSIS":"540.609","ARG_OF_PERICENTER":"86.4092","NORAD_CAT_ID":"53023","DECAY_DATE":null,"CLASSIFICATION_TYPE":"U","MEAN_ANOMALY":"273.7045","MEAN_ELEMENT_THEORY":"SGP4","TLE_LINE1":"1 53023U 22076AP  23080.84081086  .00002325  00000-0  16412-3 0  9997","BSTAR":"0.00016412000000","RA_OF_ASC_NODE":"269.6974","PERIAPSIS":"538.854","EPOCH":"2023-03-21T20:10:46.058304","TIME_SYSTEM":"UTC","OBJECT_NAME":"STARLINK-4284","REV_AT_EPOCH":"3936","GP_ID":"228620872","ELEMENT_SET_NO":"999","MEAN_MOTION_DDOT":"0.0000000000000","ECCENTRICITY":"0.00012690","CENTER_NAME":"EARTH","OBJECT_TYPE":"PAYLOAD","COUNTRY_CODE":"US","RCS_SIZE":"LARGE","SEMIMAJOR_AXIS":"6917.866","LAUNCH_DATE":"2022-07-07","MEAN_MOTION":"15.08844556","OBJECT_ID":"2022-076AP","INCLINATION":"53.2154","SITE":"AFETR"},{"CENTER_NAME":"EARTH","OBJECT_TYPE":"PAYLOAD","ECCENTRICITY":"0.00013200","ELEMENT_SET_NO":"999","MEAN_MOTION_DDOT":"0.0000000000000","INCLINATION":"53.2155","OBJECT_ID":"2022-076AQ","SITE":"AFETR","RCS_SIZE":"LARGE","SEMIMAJOR_AXIS":"6917.873","LAUNCH_DATE":"2022-07-07","MEAN_MOTION":"15.08842259","COUNTRY_CODE":"US","DECAY_DATE":null,"CLASSIFICATION_TYPE":"U","MEAN_ANOMALY":"282.1819","APOAPSIS":"540.652","ARG_OF_PERICENTER":"77.9321","NORAD_CAT_ID":"53024","PERIOD":"95.437","EPHEMERIS_TYPE":"0","REF_FRAME":"TEME","MEAN_MOTION_DOT":"0.00002287","TLE_LINE2":"2 53024  53.2155 272.3659 0001320  77.9321 282.1819 15.08842259 39272","FILE":"3866730","REV_AT_EPOCH":"3927","GP_ID":"228589369","TIME_SYSTEM":"UTC","OBJECT_NAME":"STARLINK-4289","BSTAR":"0.00016175000000","RA_OF_ASC_NODE":"272.3659","PERIAPSIS":"538.825","EPOCH":"2023-03-21T05:57:36.073152","MEAN_ELEMENT_THEORY":"SGP4","TLE_LINE1":"1 53024U 22076AQ  23080.24833418  .00002287  00000-0  16175-3 0  9999"},{"ARG_OF_PERICENTER":"91.0140","APOAPSIS":"540.461","NORAD_CAT_ID":"53025","DECAY_DATE":null,"CLASSIFICATION_TYPE":"U","MEAN_ANOMALY":"269.0974","REF_FRAME":"TEME","MEAN_MOTION_DOT":"0.00004269","TLE_LINE2":"2 53025  53.2138 269.7249 0001068  91.0140 269.0974 15.08847738 39367","FILE":"3866953","PERIOD":"95.437","EPHEMERIS_TYPE":"0","OBJECT_NAME":"STARLINK-4218","TIME_SYSTEM":"UTC","REV_AT_EPOCH":"3936","GP_ID":"228621375","MEAN_ELEMENT_THEORY":"SGP4","TLE_LINE1":"1 53025U 22076AR  23080.83713185  .00004269  00000-0  28610-3 0  9992","BSTAR":"0.00028610000000","RA_OF_ASC_NODE":"269.7249","PERIAPSIS":"538.983","EPOCH":"2023-03-21T20:05:28.191840","CENTER_NAME":"EARTH","OBJECT_TYPE":"PAYLOAD","ELEMENT_SET_NO":"999","MEAN_MOTION_DDOT":"0.0000000000000","ECCENTRICITY":"0.00010680","OBJECT_ID":"2022-076AR","INCLINATION":"53.2138","SITE":"AFETR","COUNTRY_CODE":"US","RCS_SIZE":"LARGE","LAUNCH_DATE":"2022-07-07","SEMIMAJOR_AXIS":"6917.857","MEAN_MOTION":"15.08847738"},{"ECCENTRICITY":"0.00012130","ELEMENT_SET_NO":"999","MEAN_MOTION_DDOT":"0.0000000000000","CENTER_NAME":"EARTH","OBJECT_TYPE":"PAYLOAD","LAUNCH_DATE":"2022-07-07","SEMIMAJOR_AXIS":"6917.876","RCS_SIZE":"LARGE","MEAN_MOTION":"15.08841469","COUNTRY_CODE":"US","OBJECT_ID":"2022-076AS","INCLINATION":"53.2135","SITE":"AFETR","EPHEMERIS_TYPE":"0","PERIOD":"95.437","MEAN_MOTION_DOT":"0.00001928","REF_FRAME":"TEME","FILE":"3866953","TLE_LINE2":"2 53026  53.2135 270.5521 0001213  87.1344 272.9786 15.08841469 39338","MEAN_ANOMALY":"272.9786","CLASSIFICATION_TYPE":"U","DECAY_DATE":null,"ARG_OF_PERICENTER":"87.1344","APOAPSIS":"540.580","NORAD_CAT_ID":"53026","RA_OF_ASC_NODE":"270.5521","BSTAR":"0.00013916000000","PERIAPSIS":"538.902","EPOCH":"2023-03-21T15:40:30.758592","MEAN_ELEMENT_THEORY":"SGP4","TLE_LINE1":"1 53026U 22076AS  23080.65313378  .00001928  00000-0  13916-3 0  9995","GP_ID":"228620123","REV_AT_EPOCH":"3933","TIME_SYSTEM":"UTC","OBJECT_NAME":"STARLINK-4119"},{"REV_AT_EPOCH":"3936","GP_ID":"228620373","OBJECT_NAME":"STARLINK-4158","TIME_SYSTEM":"UTC","RA_OF_ASC_NODE":"269.7727","BSTAR":"0.00010551000000","EPOCH":"2023-03-21T19:49:33.947904","PERIAPSIS":"538.878","MEAN_ELEMENT_THEORY":"SGP4","TLE_LINE1":"1 53027U 22076AT  23080.82608736  .00001392  00000-0  10551-3 0  9997","DECAY_DATE":null,"MEAN_ANOMALY":"282.1373","CLASSIFICATION_TYPE":"U","APOAPSIS":"540.573","ARG_OF_PERICENTER":"77.9756","NORAD_CAT_ID":"53027","PERIOD":"95.437","EPHEMERIS_TYPE":"0","REF_FRAME":"TEME","MEAN_MOTION_DOT":"0.00001392","TLE_LINE2":"2 53027  53.2147 269.7727 0001225  77.9756 282.1373 15.08846431 39369","FILE":"3866953","OBJECT_ID":"2022-076AT","INCLINATION":"53.2147","SITE":"AFETR","RCS_SIZE":"LARGE","LAUNCH_DATE":"2022-07-07","SEMIMAJOR_AXIS":"6917.861","MEAN_MOTION":"15.08846431","COUNTRY_CODE":"US","CENTER_NAME":"EARTH","OBJECT_TYPE":"PAYLOAD","ECCENTRICITY":"0.00012250","ELEMENT_SET_NO":"999","MEAN_MOTION_DDOT":"0.0000000000000"},{"PERIOD":"95.437","EPHEMERIS_TYPE":"0","MEAN_MOTION_DOT":"0.00005474","REF_FRAME":"TEME","TLE_LINE2":"2 53029  53.2151 259.8334 0001251  83.0850 277.0285 15.08848910 39495","FILE":"3866953","DECAY_DATE":null,"MEAN_ANOMALY":"277.0285","CLASSIFICATION_TYPE":"U","APOAPSIS":"540.584","ARG_OF_PERICENTER":"83.0850","NORAD_CAT_ID":"53029","BSTAR":"0.00036169000000","RA_OF_ASC_NODE":"259.8334","PERIAPSIS":"538.853","EPOCH":"2023-03-21T19:29:41.840448","MEAN_ELEMENT_THEORY":"SGP4","TLE_LINE1":"1 53029U 22076AV  23080.81228982  .00005474  00000-0  36169-3 0  9997","REV_AT_EPOCH":"3949","GP_ID":"228621624","TIME_SYSTEM":"UTC","OBJECT_NAME":"STARLINK-4143","ECCENTRICITY":"0.00012510","ELEMENT_SET_NO":"999","MEAN_MOTION_DDOT":"0.0000000000000","CENTER_NAME":"EARTH","OBJECT_TYPE":"PAYLOAD","RCS_SIZE":"LARGE","LAUNCH_DATE":"2022-07-07","SEMIMAJOR_AXIS":"6917.853","MEAN_MOTION":"15.08848910","COUNTRY_CODE":"US","INCLINATION":"53.2151","OBJECT_ID":"2022-076AV","SITE":"AFETR"},{"PERIAPSIS":"538.934","EPOCH":"2023-03-21T20:00:10.343520","RA_OF_ASC_NODE":"269.7409","BSTAR":"0.00003604800000","TLE_LINE1":"1 53030U 22076AW  23080.83345305  .00000286  00000-0  36048-4 0  9993","MEAN_ELEMENT_THEORY":"SGP4","GP_ID":"228621875","REV_AT_EPOCH":"3936","TIME_SYSTEM":"UTC","OBJECT_NAME":"STARLINK-4160","PERIOD":"95.438","EPHEMERIS_TYPE":"0","FILE":"3866953","TLE_LINE2":"2 53030  53.2144 269.7409 0001181 100.5922 259.5203 15.08838232 39366","MEAN_MOTION_DOT":"0.00000286","REF_FRAME":"TEME","MEAN_ANOMALY":"259.5203","CLASSIFICATION_TYPE":"U","DECAY_DATE":null,"NORAD_CAT_ID":"53030","APOAPSIS":"540.568","ARG_OF_PERICENTER":"100.5922","MEAN_MOTION":"15.08838232","SEMIMAJOR_AXIS":"6917.886","LAUNCH_DATE":"2022-07-07","RCS_SIZE":"MEDIUM","COUNTRY_CODE":"US","SITE":"AFETR","INCLINATION":"53.2144","OBJECT_ID":"2022-076AW","ECCENTRICITY":"0.00011810","MEAN_MOTION_DDOT":"0.0000000000000","ELEMENT_SET_NO":"999","OBJECT_TYPE":"PAYLOAD","CENTER_NAME":"EARTH"},{"OBJECT_ID":"2022-076AX","INCLINATION":"53.2137","SITE":"AFETR","COUNTRY_CODE":"US","SEMIMAJOR_AXIS":"6917.870","LAUNCH_DATE":"2022-07-07","RCS_SIZE":"LARGE","MEAN_MOTION":"15.08843412","CENTER_NAME":"EARTH","OBJECT_TYPE":"PAYLOAD","ELEMENT_SET_NO":"999","MEAN_MOTION_DDOT":"0.0000000000000","ECCENTRICITY":"0.00009690","TIME_SYSTEM":"UTC","OBJECT_NAME":"STARLINK-4137","GP_ID":"228620623","REV_AT_EPOCH":"3949","MEAN_ELEMENT_THEORY":"SGP4","TLE_LINE1":"1 53031U 22076AX  23080.80125091  .00000656  00000-0  59295-4 0  9999","RA_OF_ASC_NODE":"259.8858","BSTAR":"0.00005929500000","EPOCH":"2023-03-21T19:13:48.078624","PERIAPSIS":"539.065","ARG_OF_PERICENTER":"89.6345","APOAPSIS":"540.405","NORAD_CAT_ID":"53031","CLASSIFICATION_TYPE":"U","MEAN_ANOMALY":"270.4758","DECAY_DATE":null,"MEAN_MOTION_DOT":"0.00000656","REF_FRAME":"TEME","FILE":"3866953","TLE_LINE2":"2 53031  53.2137 259.8858 0000969  89.6345 270.4758 15.08843412 39493","EPHEMERIS_TYPE":"0","PERIOD":"95.437"},{"TLE_LINE1":"1 53032U 22076AY  23080.82977599  .00003918  00000-0  26416-3 0  9992","MEAN_ELEMENT_THEORY":"SGP4","PERIAPSIS":"538.995","EPOCH":"2023-03-21T19:54:52.645536","BSTAR":"0.00026416000000","RA_OF_ASC_NODE":"269.7574","TIME_SYSTEM":"UTC","OBJECT_NAME":"STARLINK-4115","REV_AT_EPOCH":"3936","GP_ID":"228620873","TLE_LINE2":"2 53032  53.2144 269.7574 0001107  83.7901 276.3217 15.08834829 39368","FILE":"3866953","REF_FRAME":"TEME","MEAN_MOTION_DOT":"0.00003918","PERIOD":"95.438","EPHEMERIS_TYPE":"0","NORAD_CAT_ID":"53032","ARG_OF_PERICENTER":"83.7901","APOAPSIS":"540.527","DECAY_DATE":null,"CLASSIFICATION_TYPE":"U","MEAN_ANOMALY":"276.3217","COUNTRY_CODE":"US","MEAN_MOTION":"15.08834829","RCS_SIZE":"LARGE","SEMIMAJOR_AXIS":"6917.896","LAUNCH_DATE":"2022-07-07","SITE":"AFETR","INCLINATION":"53.2144","OBJECT_ID":"2022-076AY","MEAN_MOTION_DDOT":"0.0000000000000","ELEMENT_SET_NO":"999","ECCENTRICITY":"0.00011070","OBJECT_TYPE":"PAYLOAD","CENTER_NAME":"EARTH"}];
